*******************************************************************************
Ephemeris / WWW_USER Mon Mar 24 07:48:30 2025 Pasadena, USA      / Horizons    
*******************************************************************************
Target body name: (2018 TB)                       {source: JPL#26}
Center body name: Earth (399)                     {source: DE441}
Center-site name: Mauna Kea
*******************************************************************************
Start time      : A.D. 2018-Oct-27 04:00:00.0000 UT      
Stop  time      : A.D. 2018-Oct-27 16:11:00.0000 UT      
Step-size       : 1 minutes
*******************************************************************************
Target pole/equ : undefined
Target radii    : undefined                                                    
Center geodetic : 204.5278, 19.8260847, 4.21024   {E-lon(deg),Lat(deg),Alt(km)}
Center cylindric: 204.5278, 6006.35451, 2151.0229 {E-lon(deg),Dxy(km),Dz(km)}
Center pole/equ : ITRF93                          {East-longitude positive}
Center radii    : 6378.137, 6378.137, 6356.752 km {Equator_a, b, pole_c}       
Target primary  : Sun
Vis. interferer : MOON (R_eq= 1737.400) km        {source: DE441}
Rel. light bend : Sun                             {source: DE441}
Rel. lght bnd GM: 1.3271E+11 km^3/s^2                                          
Small-body perts: Yes                             {source: SB441-N16}
Atmos refraction: NO (AIRLESS)
RA format       : HMS
Time format     : CAL 
Calendar mode   : Mixed Julian/Gregorian
RTS-only print  : NO       
EOP file        : eop.250321.p250617                                           
EOP coverage    : DATA-BASED 1962-JAN-20 TO 2025-MAR-21. PREDICTS-> 2025-JUN-16
Units conversion: 1 au= 149597870.700 km, c= 299792.458 km/s, 1 day= 86400.0 s 
Table cut-offs 1: Elevation (-90.0deg=NO ),Airmass (>38.000=NO), Daylight (YES)
Table cut-offs 2: Solar elongation (  0.0,180.0=NO ),Local Hour Angle( 0.0=NO )
Table cut-offs 3: RA/DEC angular rate (     0.0=NO )                           
*******************************************************************************
Initial IAU76/J2000 heliocentric ecliptic osculating elements (au, days, deg.):
  EPOCH=  2458410.5 ! 2018-Oct-19.00 (TDB)         Residual RMS= .12604        
   EC= .5817616216321111   QR= 1.001672821897195   TP= 2458383.1822299529      
   OM= 14.42282174156359   W=  341.1556337077549   IN= 3.61300419916586        
  Equivalent ICRF heliocentric cartesian coordinates (au, au/d):
   X= 9.381709462996228E-01  Y= 4.515017153732180E-01  Z= 2.129237315158303E-01
  VX=-5.799214133182419E-03 VY= 1.778204046057418E-02 VZ= 9.138573561666745E-03
Asteroid physical parameters (km, seconds, rotational period in hours):        
   GM= n.a.                RAD= n.a.               ROTPER= n.a.                
   H= 24.89                G= .150                 B-V= n.a.                   
                           ALBEDO= n.a.            STYP= n.a.                  
*******************************************************************************
 Date__(UT)__HR:MN     R.A._________(ICRF)_________DEC
******************************************************
$$SOE
 2018-Oct-27 12:12  m  03 56 37.753158 +32 50 45.74869
 2018-Oct-27 12:13  m  03 56 37.728325 +32 50 45.92986
 2018-Oct-27 12:14  m  03 56 37.703500 +32 50 46.11033
 2018-Oct-27 12:15  m  03 56 37.678681 +32 50 46.29010
 2018-Oct-27 12:16  m  03 56 37.653869 +32 50 46.46916
 2018-Oct-27 12:17  m  03 56 37.629065 +32 50 46.64752
 2018-Oct-27 12:18  m  03 56 37.604268 +32 50 46.82518
 2018-Oct-27 12:19  m  03 56 37.579481 +32 50 47.00214
 2018-Oct-27 12:20  m  03 56 37.554702 +32 50 47.17839
 2018-Oct-27 12:21  m  03 56 37.529933 +32 50 47.35394
 2018-Oct-27 12:22  m  03 56 37.505173 +32 50 47.52879
 2018-Oct-27 12:23  m  03 56 37.480424 +32 50 47.70294
 2018-Oct-27 12:24  m  03 56 37.455685 +32 50 47.87639
 2018-Oct-27 12:25  m  03 56 37.430957 +32 50 48.04914
 2018-Oct-27 12:26  m  03 56 37.406241 +32 50 48.22119
 2018-Oct-27 12:27  m  03 56 37.381537 +32 50 48.39254
 2018-Oct-27 12:28  m  03 56 37.356845 +32 50 48.56319
 2018-Oct-27 12:29  m  03 56 37.332166 +32 50 48.73314
 2018-Oct-27 12:30  m  03 56 37.307500 +32 50 48.90240
 2018-Oct-27 12:31  m  03 56 37.282848 +32 50 49.07095
 2018-Oct-27 12:32  m  03 56 37.258210 +32 50 49.23881
 2018-Oct-27 12:33  m  03 56 37.233586 +32 50 49.40598
 2018-Oct-27 12:34  m  03 56 37.208977 +32 50 49.57245
 2018-Oct-27 12:35  m  03 56 37.184384 +32 50 49.73822
 2018-Oct-27 12:36  m  03 56 37.159807 +32 50 49.90330
 2018-Oct-27 12:37  m  03 56 37.135245 +32 50 50.06769
 2018-Oct-27 12:38  m  03 56 37.110700 +32 50 50.23138
 2018-Oct-27 12:39  m  03 56 37.086173 +32 50 50.39438
 2018-Oct-27 12:40  m  03 56 37.061663 +32 50 50.55668
 2018-Oct-27 12:41  m  03 56 37.037170 +32 50 50.71830
 2018-Oct-27 12:42  m  03 56 37.012696 +32 50 50.87922
 2018-Oct-27 12:43  m  03 56 36.988241 +32 50 51.03945
 2018-Oct-27 12:44  m  03 56 36.963805 +32 50 51.19900
 2018-Oct-27 12:45  m  03 56 36.939389 +32 50 51.35785
 2018-Oct-27 12:46  m  03 56 36.914992 +32 50 51.51602
 2018-Oct-27 12:47  m  03 56 36.890616 +32 50 51.67350
 2018-Oct-27 12:48  m  03 56 36.866261 +32 50 51.83029
 2018-Oct-27 12:49  m  03 56 36.841927 +32 50 51.98639
 2018-Oct-27 12:50  m  03 56 36.817615 +32 50 52.14181
 2018-Oct-27 12:51  m  03 56 36.793325 +32 50 52.29655
 2018-Oct-27 12:52  m  03 56 36.769058 +32 50 52.45060
 2018-Oct-27 12:53  m  03 56 36.744813 +32 50 52.60397
 2018-Oct-27 12:54  m  03 56 36.720592 +32 50 52.75665
 2018-Oct-27 12:55  m  03 56 36.696395 +32 50 52.90866
 2018-Oct-27 12:56  m  03 56 36.672221 +32 50 53.05998
 2018-Oct-27 12:57  m  03 56 36.648073 +32 50 53.21062
 2018-Oct-27 12:58  m  03 56 36.623950 +32 50 53.36059
 2018-Oct-27 12:59  m  03 56 36.599852 +32 50 53.50987
 2018-Oct-27 13:00  m  03 56 36.575779 +32 50 53.65848
 2018-Oct-27 13:01  m  03 56 36.551734 +32 50 53.80641
 2018-Oct-27 13:02  m  03 56 36.527714 +32 50 53.95367
 2018-Oct-27 13:03  m  03 56 36.503722 +32 50 54.10025
 2018-Oct-27 13:04  m  03 56 36.479758 +32 50 54.24616
 2018-Oct-27 13:05  m  03 56 36.455821 +32 50 54.39139
 2018-Oct-27 13:06  m  03 56 36.431913 +32 50 54.53595
 2018-Oct-27 13:07  m  03 56 36.408034 +32 50 54.67984
 2018-Oct-27 13:08  m  03 56 36.384184 +32 50 54.82306
 2018-Oct-27 13:09  m  03 56 36.360363 +32 50 54.96561
 2018-Oct-27 13:10  m  03 56 36.336572 +32 50 55.10750
 2018-Oct-27 13:11  m  03 56 36.312812 +32 50 55.24871
 2018-Oct-27 13:12  m  03 56 36.289083 +32 50 55.38926
 2018-Oct-27 13:13  m  03 56 36.265384 +32 50 55.52915
 2018-Oct-27 13:14  m  03 56 36.241718 +32 50 55.66837
 2018-Oct-27 13:15  m  03 56 36.218083 +32 50 55.80693
 2018-Oct-27 13:16  m  03 56 36.194481 +32 50 55.94482
 2018-Oct-27 13:17  m  03 56 36.170912 +32 50 56.08206
 2018-Oct-27 13:18  m  03 56 36.147376 +32 50 56.21863
 2018-Oct-27 13:19  m  03 56 36.123873 +32 50 56.35455
 2018-Oct-27 13:20  m  03 56 36.100405 +32 50 56.48981
 2018-Oct-27 13:21  m  03 56 36.076971 +32 50 56.62441
 2018-Oct-27 13:22  m  03 56 36.053572 +32 50 56.75835
 2018-Oct-27 13:23  m  03 56 36.030208 +32 50 56.89165
 2018-Oct-27 13:24  m  03 56 36.006880 +32 50 57.02428
 2018-Oct-27 13:25  m  03 56 35.983588 +32 50 57.15627
 2018-Oct-27 13:26  m  03 56 35.960332 +32 50 57.28761
 2018-Oct-27 13:27  m  03 56 35.937113 +32 50 57.41829
 2018-Oct-27 13:28  m  03 56 35.913932 +32 50 57.54833
 2018-Oct-27 13:29  m  03 56 35.890788 +32 50 57.67772
 2018-Oct-27 13:30  m  03 56 35.867682 +32 50 57.80647
 2018-Oct-27 13:31  m  03 56 35.844614 +32 50 57.93457
 2018-Oct-27 13:32  m  03 56 35.821586 +32 50 58.06202
 2018-Oct-27 13:33  m  03 56 35.798596 +32 50 58.18884
 2018-Oct-27 13:34  m  03 56 35.775646 +32 50 58.31501
 2018-Oct-27 13:35  m  03 56 35.752736 +32 50 58.44054
 2018-Oct-27 13:36  m  03 56 35.729867 +32 50 58.56544
 2018-Oct-27 13:37  m  03 56 35.707038 +32 50 58.68970
 2018-Oct-27 13:38  m  03 56 35.684251 +32 50 58.81332
 2018-Oct-27 13:39  m  03 56 35.661505 +32 50 58.93631
 2018-Oct-27 13:40  m  03 56 35.638800 +32 50 59.05866
 2018-Oct-27 13:41  m  03 56 35.616139 +32 50 59.18039
 2018-Oct-27 13:42  m  03 56 35.593520 +32 50 59.30148
 2018-Oct-27 13:43  m  03 56 35.570944 +32 50 59.42194
 2018-Oct-27 13:44  m  03 56 35.548411 +32 50 59.54178
 2018-Oct-27 13:45  m  03 56 35.525922 +32 50 59.66099
 2018-Oct-27 13:46  m  03 56 35.503478 +32 50 59.77957
 2018-Oct-27 13:47  m  03 56 35.481078 +32 50 59.89753
 2018-Oct-27 13:48  m  03 56 35.458723 +32 51 00.01487
 2018-Oct-27 13:49  m  03 56 35.436414 +32 51 00.13159
 2018-Oct-27 13:50  m  03 56 35.414150 +32 51 00.24769
 2018-Oct-27 13:51  m  03 56 35.391933 +32 51 00.36318
 2018-Oct-27 13:52  m  03 56 35.369761 +32 51 00.47804
 2018-Oct-27 13:53  m  03 56 35.347637 +32 51 00.59229
 2018-Oct-27 13:54  m  03 56 35.325560 +32 51 00.70593
 2018-Oct-27 13:55  m  03 56 35.303531 +32 51 00.81896
 2018-Oct-27 13:56  m  03 56 35.281550 +32 51 00.93138
 2018-Oct-27 13:57  m  03 56 35.259617 +32 51 01.04318
 2018-Oct-27 13:58  m  03 56 35.237732 +32 51 01.15438
 2018-Oct-27 13:59  m  03 56 35.215897 +32 51 01.26498
 2018-Oct-27 14:00  m  03 56 35.194111 +32 51 01.37497
 2018-Oct-27 14:01  m  03 56 35.172376 +32 51 01.48436
 2018-Oct-27 14:02  m  03 56 35.150690 +32 51 01.59315
 2018-Oct-27 14:03  m  03 56 35.129055 +32 51 01.70134
 2018-Oct-27 14:04  m  03 56 35.107471 +32 51 01.80893
 2018-Oct-27 14:05  m  03 56 35.085938 +32 51 01.91593
 2018-Oct-27 14:06  m  03 56 35.064457 +32 51 02.02233
 2018-Oct-27 14:07  m  03 56 35.043027 +32 51 02.12814
 2018-Oct-27 14:08  m  03 56 35.021651 +32 51 02.23336
 2018-Oct-27 14:09  m  03 56 35.000326 +32 51 02.33799
 2018-Oct-27 14:10  m  03 56 34.979055 +32 51 02.44203
 2018-Oct-27 14:11  m  03 56 34.957838 +32 51 02.54548
 2018-Oct-27 14:12  m  03 56 34.936674 +32 51 02.64835
 2018-Oct-27 14:13  m  03 56 34.915564 +32 51 02.75064
 2018-Oct-27 14:14  m  03 56 34.894509 +32 51 02.85235
